#aV2015  4 16  0  0  0.00000000     288 DD+AD WGS84 FIT  NGA
## 1840 345600.00000000   300.00000000 57128 0.0000000000000
+   30     1  2  3  4  5  6  7  9 10 11 12 13 14 15 16 17 18
+         19 20 21 22 23 24 25 27 28 29 30 31 32  0  0  0  0
+          0  0  0  0  0  0  0  0  0  0  0  0  0  0  0  0  0
+          0  0  0  0  0  0  0  0  0  0  0  0  0  0  0  0  0
+          0  0  0  0  0  0  0  0  0  0  0  0  0  0  0  0  0
++         2  2  2  2  2  2  2  2  2  2  2  2  2  2  2  2  2
++         2  2  2  2  2  2  2  2  2  2  2  2  2  0  0  0  0
++         0  0  0  0  0  0  0  0  0  0  0  0  0  0  0  0  0
++         0  0  0  0  0  0  0  0  0  0  0  0  0  0  0  0  0
++         0  0  0  0  0  0  0  0  0  0  0  0  0  0  0  0  0
%c cc cc ccc ccc cccc cccc cccc cccc ccccc ccccc ccccc ccccc
%c cc cc ccc ccc cccc cccc cccc cccc ccccc ccccc ccccc ccccc
%f  0.0000000  0.000000000  0.00000000000  0.000000000000000
%f  0.0000000  0.000000000  0.00000000000  0.000000000000000
%i    0    0    0    0      0      0      0      0         0
%i    0    0    0    0      0      0      0      0         0
/*      NGA, ST. LOUIS,MO.                                  
/*   EPHEMERIS COMPUTED FROM  1 DAYS OF DATA                
/*   EPOCHA SMOOTHER                                       
/* CCCCCCCCCCCCCCCCCCCCCCCCCCCCCCCCCCCCCCCCCCCCCCCCCCCCCCCCC
*  2015  4 16 11 35  0.00000000
P  1 -13637.964223  22185.640545   4647.099980     -6.717015                    
V  1   -150.594771  -6650.330748  31159.461425      0.004594                    
P  2  16989.859998  -3763.899037 -19576.350095    560.104825                    
V  2  -8311.142277  24539.872195 -12171.344153      0.023365                    
P  3 -15941.828082  13323.889014 -16559.587553    298.049524                    
V  3 -21110.711029    364.017106  20560.316710      0.134426                    
P  4 -16827.474390  15722.970277  12677.927641    -11.535419                    
V  4   3766.305563 -16623.172708  25251.779698     -0.010613                    
P  5  26448.907340  -3302.119364    510.546773   -253.166358                    
V  5   1043.526372   3004.107919 -31321.002082      0.047988                    
P  6  10623.922254  12244.439474 -21040.974244    137.155539                    
V  6 -11497.382606  24123.223061   8221.801525      0.098376                    
P  7  -5011.178821  24410.715192   8741.041898    455.691848                    
V  7  -7083.183470   8872.375316 -29524.017708      0.027183                    
P  9   3597.877679  22040.999717 -14372.838580   -138.164509                    
V  9 -12548.090374 -13432.264883 -23769.795104     -0.080527                    
P 10  18125.609331  10610.499014 -16884.936721   -171.132802                    
V 10 -20346.062090   3733.651369 -19531.361968     -0.014823                    
P 11 -11598.527905  20022.487217  12398.282642   -571.791431                    
V 11  -2843.728574 -17089.487572  24065.555368     -0.026409                    
P 12  18809.862559 -11022.365104 -15103.403442    285.259115                    
V 12  19101.337569    398.562437  23860.808825      0.031068                    
P 13  17432.521740   3934.243198  19458.925000   -106.152937                    
V 13  11340.592274  22348.003250 -14684.991950     -0.034310                    
P 14 -15404.806299 -21542.847827  -2661.217436     70.478620                    
V 14    215.230429  -4418.614055  31555.756395     -0.028369                    
P 15  12858.099617  -9138.584298  21283.445130   -243.876251                    
V 15  17087.644015  21340.451984   -839.305286     -0.021773                    
P 16 -26733.685581   1286.878226    360.433795   -138.157853                    
V 16   -598.734785  -1533.351996 -32140.959490      0.035973                    
P 17  15232.472856  21860.886569   -983.927593   -166.612321                    
V 17  -1041.955359   2599.327609  31828.338334     -0.019146                    
P 18  -5130.946508 -15593.952194  21398.215168    394.344704                    
V 18  25925.023292  -3479.007303   3458.185693      0.028933                    
P 19 -14722.064089   4203.857715  21563.459498   -507.499167                    
V 19 -13959.467018 -23974.157907  -4362.299623     -0.011937                    
P 20  25168.113320   2116.255872  -8617.718542    310.788889                    
V 20  -9952.067428   5235.680448 -28271.469053      0.037783                    
P 21    612.933111 -23866.329250  11928.882269   -437.107768                    
V 21   8537.256068 -11890.188420 -26123.307484     -0.037253                    
P 22 -17234.749120 -11035.556357  17250.128350    340.310048                    
V 22  21101.216421  -4770.913577  18095.938182      0.041870                    
P 23  -6178.825324  16005.288192 -20021.250453   -102.250477                    
V 23 -16234.676170 -20223.277767 -11508.175692     -0.025114                    
P 24  14684.004899 -20703.451176   7527.998733    -46.722222                    
V 24  -1058.054051  10050.849306  29706.547580     -0.005889                    
P 25   5745.454934 -14969.384599 -21234.998057    -20.251737                    
V 25  26657.675482  -2097.037962   8891.264860     -0.034901                    
P 27 -19180.376965  -5817.163520  17471.166912     65.372930                    
V 27 -11836.051848 -18785.283107 -19126.880034      0.026723                    
P 28  12144.026621  12995.698232  20374.343539    433.362605                    
V 28 -24374.734165   1464.957992  13941.217011      0.025965                    
P 29   -184.790001 -20883.308089 -16414.166401    604.651798                    
V 29  12661.756757  16636.373094 -21221.686341      0.023028                    
P 30   2874.596994  20085.455572  17099.632805    -70.753160                    
V 30 -11979.121795  18271.927945 -19490.242359      0.039480                    
P 31 -12154.885769  -8752.047798 -21781.557911    318.456652                    
V 31  12575.085018 -24967.576934   3327.281832     -0.009520                    
P 32 -25273.706634   4547.488184  -5565.019995   -174.698250                    
V 32  -7249.417278  -3430.282248  30723.449854      0.094823                    
EOF
